SHIYAN 1 (SY-1)         
1 28220U 04012A   17346.49968839  .00001152  00000-0  98889-4 0  9993
2 28220  97.7235 300.6831 0006487 263.3774  96.6711 14.99423239743142
